[
  {
    "object_name": "FLOCK 4S-17",
    "object_id": "2021-006CH",
    "norad_cat_id": 47492,
    "owner": "US",
    "launch_date": "2021-01-24",
    "launch_site": "AFETR",
    "tle1": "1 47492U 21006CH  23167.14365400  .00013057  00000+0  45208-3 0  9994",
    "tle2": "2 47492  97.3972 226.7089 0008957  86.7466 273.4799 15.29951642132567",
    "type": "satellite"
  },
  {
    "object_name": "LEMUR-2-MANGO1",
    "object_id": "2021-006CJ",
    "norad_cat_id": 47493,
    "owner": "US",
    "launch_date": "2021-01-24",
    "launch_site": "AFETR",
    "tle1": "1 47493U 21006CJ  23166.63331813  .00023579  00000+0  83332-3 0  9999",
    "tle2": "2 47493  97.3902 225.1382 0009103  98.9653 261.2618 15.29152890132481",
    "type": "satellite"
  },
  {
    "object_name": "FLOCK 4S-3",
    "object_id": "2021-006CK",
    "norad_cat_id": 47494,
    "owner": "US",
    "launch_date": "2021-01-24",
    "launch_site": "AFETR",
    "tle1": "1 47494U 21006CK  23166.68069336  .00022888  00000+0  55076-3 0  9999",
    "tle2": "2 47494  97.3793 225.1706 0008355 102.2785 257.9398 15.41262918132511",
    "type": "satellite"
  },
  {
    "object_name": "FLOCK 4S-27",
    "object_id": "2021-006CL",
    "norad_cat_id": 47495,
    "owner": "US",
    "launch_date": "2021-01-24",
    "launch_site": "AFETR",
    "tle1": "1 47495U 21006CL  23166.71487012  .00013194  00000+0  49370-3 0  9999",
    "tle2": "2 47495  97.3829 224.3723 0010181 102.7979 257.4399 15.27389713132469",
    "type": "satellite"
  },
  {
    "object_name": "FLOCK 4S-18",
    "object_id": "2021-006CM",
    "norad_cat_id": 47496,
    "owner": "US",
    "launch_date": "2021-01-24",
    "launch_site": "AFETR",
    "tle1": "1 47496U 21006CM  23166.73491287  .00012526  00000+0  43202-3 0  9997",
    "tle2": "2 47496  97.3941 226.1536 0010065  90.4155 269.8239 15.30078196132506",
    "type": "satellite"
  },
  {
    "object_name": "FLOCK 4S-2",
    "object_id": "2021-006CP",
    "norad_cat_id": 47498,
    "owner": "US",
    "launch_date": "2021-01-24",
    "launch_site": "AFETR",
    "tle1": "1 47498U 21006CP  23166.72367037  .00034062  00000+0  58323-3 0  9992",
    "tle2": "2 47498  97.3760 227.5555 0008138 111.0096 249.2027 15.51131880132673",
    "type": "satellite"
  },
  {
    "object_name": "FLOCK 4S-19",
    "object_id": "2021-006CR",
    "norad_cat_id": 47500,
    "owner": "US",
    "launch_date": "2021-01-24",
    "launch_site": "AFETR",
    "tle1": "1 47500U 21006CR  23166.72612556  .00011624  00000+0  40156-3 0  9999",
    "tle2": "2 47500  97.3939 226.1394 0009587  87.5162 272.7176 15.30049113132503",
    "type": "satellite"
  },
  {
    "object_name": "LEMUR-2-RUAIRI-EILIDH",
    "object_id": "2021-006DC",
    "norad_cat_id": 47511,
    "owner": "US",
    "launch_date": "2021-01-24",
    "launch_site": "AFETR",
    "tle1": "1 47511U 21006DC  23166.72946096  .00029295  00000+0  95644-3 0  9995",
    "tle2": "2 47511  97.3882 225.2278 0007191 103.1601 257.0443 15.31695429132506",
    "type": "satellite"
  },
  {
    "object_name": "FLOCK 4S-28",
    "object_id": "2021-006DE",
    "norad_cat_id": 47514,
    "owner": "US",
    "launch_date": "2021-01-24",
    "launch_site": "AFETR",
    "tle1": "1 47514U 21006DE  23166.75028493  .00011030  00000+0  38141-3 0  9990",
    "tle2": "2 47514  97.3829 224.7322 0007697  94.8663 265.3457 15.30046686133455",
    "type": "satellite"
  },
  {
    "object_name": "FLOCK 4S-5",
    "object_id": "2021-006DF",
    "norad_cat_id": 47515,
    "owner": "US",
    "launch_date": "2021-01-24",
    "launch_site": "AFETR",
    "tle1": "1 47515U 21006DF  23166.74308517  .00010181  00000+0  35056-3 0  9996",
    "tle2": "2 47515  97.3819 224.6556 0008279  93.9183 266.3004 15.30203037132494",
    "type": "satellite"
  },
  {
    "object_name": "FLOCK 4S-16",
    "object_id": "2021-006DG",
    "norad_cat_id": 47516,
    "owner": "US",
    "launch_date": "2021-01-24",
    "launch_site": "AFETR",
    "tle1": "1 47516U 21006DG  23166.67764413  .00016273  00000+0  36066-3 0  9990",
    "tle2": "2 47516  97.3918 227.7560 0009056  91.7835 268.4450 15.43796551133567",
    "type": "satellite"
  },
  {
    "object_name": "FLOCK 4S-6",
    "object_id": "2021-006DJ",
    "norad_cat_id": 47518,
    "owner": "US",
    "launch_date": "2021-01-24",
    "launch_site": "AFETR",
    "tle1": "1 47518U 21006DJ  23166.75090678  .00011028  00000+0  37845-3 0  9995",
    "tle2": "2 47518  97.3844 224.8178 0008088 101.4200 258.7949 15.30292150133465",
    "type": "satellite"
  },
  {
    "object_name": "FLOCK 4S-29",
    "object_id": "2021-006DL",
    "norad_cat_id": 47520,
    "owner": "US",
    "launch_date": "2021-01-24",
    "launch_site": "AFETR",
    "tle1": "1 47520U 21006DL  23166.69569651  .00011716  00000+0  40675-3 0  9992",
    "tle2": "2 47520  97.3846 224.7973 0007613  98.0956 262.1148 15.29900557132480",
    "type": "satellite"
  },
  {
    "object_name": "FLOCK 4S-15",
    "object_id": "2021-006DM",
    "norad_cat_id": 47521,
    "owner": "US",
    "launch_date": "2021-01-24",
    "launch_site": "AFETR",
    "tle1": "1 47521U 21006DM  23167.12861294  .00027600  00000+0  65754-3 0  9994",
    "tle2": "2 47521  97.3905 226.8579 0007808 113.3473 246.8596 15.41531807133550",
    "type": "satellite"
  },
  {
    "object_name": "FLOCK 4S-37",
    "object_id": "2021-006DN",
    "norad_cat_id": 47522,
    "owner": "US",
    "launch_date": "2021-01-24",
    "launch_site": "AFETR",
    "tle1": "1 47522U 21006DN  23166.69605168  .00012253  00000+0  42233-3 0  9997",
    "tle2": "2 47522  97.3935 225.7944 0006948  98.1214 262.0815 15.30129410133459",
    "type": "satellite"
  },
  {
    "object_name": "FLOCK 4S-10",
    "object_id": "2021-006DP",
    "norad_cat_id": 47523,
    "owner": "US",
    "launch_date": "2021-01-24",
    "launch_site": "AFETR",
    "tle1": "1 47523U 21006DP  23166.74216649  .00012336  00000+0  42739-3 0  9999",
    "tle2": "2 47523  97.3878 225.0090 0007368 102.0722 258.1344 15.29958635132489",
    "type": "satellite"
  },
  {
    "object_name": "LEMUR-2-JENNIFERSONG",
    "object_id": "2021-006DR",
    "norad_cat_id": 47525,
    "owner": "US",
    "launch_date": "2021-01-24",
    "launch_site": "AFETR",
    "tle1": "1 47525U 21006DR  23166.73045695  .00041885  00000+0  11611-2 0  9996",
    "tle2": "2 47525  97.3896 227.3843 0008176  92.5955 267.6225 15.36792985132633",
    "type": "satellite"
  },
  {
    "object_name": "FLOCK 4S-7",
    "object_id": "2021-006DT",
    "norad_cat_id": 47527,
    "owner": "US",
    "launch_date": "2021-01-24",
    "launch_site": "AFETR",
    "tle1": "1 47527U 21006DT  23166.70112967  .00011472  00000+0  39689-3 0  9997",
    "tle2": "2 47527  97.3840 224.7196 0007230  98.1329 262.0731 15.30024039133446",
    "type": "satellite"
  },
  {
    "object_name": "FLOCK 4S-14",
    "object_id": "2021-006DU",
    "norad_cat_id": 47528,
    "owner": "US",
    "launch_date": "2021-01-24",
    "launch_site": "AFETR",
    "tle1": "1 47528U 21006DU  23166.70863099  .00011149  00000+0  38584-3 0  9991",
    "tle2": "2 47528  97.3937 225.8120 0007395  99.5563 260.6513 15.30020811133446",
    "type": "satellite"
  },
  {
    "object_name": "LEMUR-2-CHANTAL",
    "object_id": "2021-006DV",
    "norad_cat_id": 47529,
    "owner": "US",
    "launch_date": "2021-01-24",
    "launch_site": "AFETR",
    "tle1": "1 47529U 21006DV  23166.69086234  .00019576  00000+0  67575-3 0  9992",
    "tle2": "2 47529  97.3870 224.6160 0007081  98.9386 261.2657 15.29975606133414",
    "type": "satellite"
  },
  {
    "object_name": "FLOCK 4S-36",
    "object_id": "2021-006DW",
    "norad_cat_id": 47530,
    "owner": "US",
    "launch_date": "2021-01-24",
    "launch_site": "AFETR",
    "tle1": "1 47530U 21006DW  23166.70552150  .00011565  00000+0  39810-3 0  9992",
    "tle2": "2 47530  97.3927 225.6996 0007203  97.7415 262.4644 15.30184335133448",
    "type": "satellite"
  },
  {
    "object_name": "LEMUR-2-NOOBNOOB",
    "object_id": "2021-006DY",
    "norad_cat_id": 47538,
    "owner": "US",
    "launch_date": "2021-01-24",
    "launch_site": "AFETR",
    "tle1": "1 47538U 21006DY  23166.71125957  .00023794  00000+0  75706-3 0  9993",
    "tle2": "2 47538  97.3928 226.9564 0009040  90.0759 270.1519 15.32551186132563",
    "type": "satellite"
  },
  {
    "object_name": "FLOCK 4S-24",
    "object_id": "2021-006DZ",
    "norad_cat_id": 47539,
    "owner": "US",
    "launch_date": "2021-01-24",
    "launch_site": "AFETR",
    "tle1": "1 47539U 21006DZ  23166.71475290  .00011230  00000+0  38750-3 0  9992",
    "tle2": "2 47539  97.3871 225.3895 0009136  83.7464 276.4817 15.30100754132502",
    "type": "satellite"
  },
  {
    "object_name": "FLOCK 4S-20",
    "object_id": "2021-006EA",
    "norad_cat_id": 47540,
    "owner": "US",
    "launch_date": "2021-01-24",
    "launch_site": "AFETR",
    "tle1": "1 47540U 21006EA  23166.71166561  .00011075  00000+0  38271-3 0  9997",
    "tle2": "2 47540  97.3931 226.0291 0009129  86.1942 274.0342 15.30056032131571",
    "type": "satellite"
  },
  {
    "object_name": "FLOCK 4S-25",
    "object_id": "2021-006EC",
    "norad_cat_id": 47542,
    "owner": "US",
    "launch_date": "2021-01-24",
    "launch_site": "AFETR",
    "tle1": "1 47542U 21006EC  23166.70995914  .00010914  00000+0  37423-3 0  9999",
    "tle2": "2 47542  97.3846 225.1530 0009642  88.2403 271.9942 15.30309011131579",
    "type": "satellite"
  },
  {
    "object_name": "FLOCK 4S-1",
    "object_id": "2021-006ED",
    "norad_cat_id": 47543,
    "owner": "US",
    "launch_date": "2021-01-24",
    "launch_site": "AFETR",
    "tle1": "1 47543U 21006ED  23166.70683936  .00011739  00000+0  40122-3 0  9994",
    "tle2": "2 47543  97.3859 225.1641 0009106  80.5008 279.7261 15.30398720131573",
    "type": "satellite"
  }
]